QIANFAN-97              
1 66039U 25233G   25361.02552377  .00000037  00000+0  30795-4 0  9994
2 66039  88.9945  60.6545 0015164   7.1428 352.9944 13.63443828  9933
QIANFAN-98              
1 66040U 25233H   25361.25950291  .00000047  00000+0  31570-4 0  9991
2 66040  88.9940  60.5241 0014433   3.3060 356.8202 13.82580011 10029
QIANFAN-99              
1 66041U 25233J   25360.97208330  .00000035  00000+0  30096-4 0  9999
2 66041  88.9962  60.6669 0015626   3.3861 356.7398 13.59926379  9920
QIANFAN-100             
1 66042U 25233K   25361.00772545  .00000019  00000+0  64573-5 0  9999
2 66042  88.9929  60.5635 0010447  10.1891 349.9482 13.71950582  9971
QIANFAN-101             
1 66043U 25233L   25361.25484608  .00000251  00000+0  97756-4 0  9993
2 66043  88.9947  60.3577 0014270 356.8134   3.2966 14.26684134 10116
QIANFAN-102             
1 66044U 25233M   25361.23498725  .00000035  00000+0  27215-4 0  9990
2 66044  88.9946  60.6126 0014571   4.9630 355.1672 13.66799691  9978
QIANFAN-103             
1 66045U 25233N   25360.97704567  .00000036  00000+0  30617-4 0  9996
2 66045  88.9938  60.6566 0012397   5.5824 354.5469 13.62335670  9925
QIANFAN-104             
1 66046U 25233P   25361.23930166  .00000171  00000+0  17543-3 0  9995
2 66046  88.9950  60.6145 0014043   8.7077 351.4327 13.71544913  9974
